[{"OBJECT_NAME":"FLOCK 4G-36","OBJECT_ID":"2025-009BU","EPOCH":"2026-03-09T16:58:27.533568","MEAN_MOTION":15.27209548,"ECCENTRICITY":0.00034736,"INCLINATION":97.4053,"RA_OF_ASC_NODE":151.0513,"ARG_OF_PERICENTER":324.2456,"MEAN_ANOMALY":35.855,"EPHEMERIS_TYPE":0,"CLASSIFICATION_TYPE":"U","NORAD_CAT_ID":62675,"ELEMENT_SET_NO":999,"REV_AT_EPOCH":6370,"BSTAR":0.00051121743,"MEAN_MOTION_DOT":0.00013573,"MEAN_MOTION_DDOT":0},{"OBJECT_NAME":"STARLINK-36442","OBJECT_ID":"2026-005K","EPOCH":"2026-03-09T12:30:06.687072","MEAN_MOTION":15.27594216,"ECCENTRICITY":0.00010969,"INCLINATION":43.0005,"RA_OF_ASC_NODE":238.6778,"ARG_OF_PERICENTER":293.6702,"MEAN_ANOMALY":66.4034,"EPHEMERIS_TYPE":0,"CLASSIFICATION_TYPE":"U","NORAD_CAT_ID":67413,"ELEMENT_SET_NO":999,"REV_AT_EPOCH":867,"BSTAR":0.0013003564,"MEAN_MOTION_DOT":0.0003571,"MEAN_MOTION_DDOT":0}]
